STARLINK-6040           
1 56809U 23078AU  26159.61448837 -.00000060  00000+0  28010-5 0  9994
2 56809  69.9995 115.0506 0003349 265.1374  94.9402 14.98329274166305
STARLINK-6031           
1 56810U 23078AV  26159.29740418  .00000719  00000+0  68048-4 0  9994
2 56810  69.9990 115.9506 0003273 263.5747  96.5039 14.98331106166258
STARLINK-6065           
1 56812U 23078AX  26159.53097488 -.00000374  00000+0 -23511-4 0  9990
2 56812  70.0003  95.2998 0002885 268.2436  91.8393 14.98333444166784
STARLINK-6056           
1 56813U 23078AY  26159.20992060 -.00000226  00000+0 -11175-4 0  9994
2 56813  69.9995 116.0465 0003173 267.0981  92.9815 14.98326735166243
STARLINK-6059           
1 56814U 23078AZ  26159.61866288 -.00000491  00000+0 -33344-4 0  9998
2 56814  69.9995 115.0646 0003078 262.1836  97.8974 14.98331894166302
STARLINK-6067           
1 56816U 23078BB  26159.51828980  .00001374  00000+0  12292-3 0  9993
2 56816  69.9997  95.2485 0003228 264.1737  95.9054 14.98321363166785
STARLINK-6028           
1 56818U 23078BD  26159.20976080  .00005731  00000+0  48758-3 0  9993
2 56818  70.0009 116.0448 0002976 270.1540  89.9278 14.98338022166931
STARLINK-30119          
1 56823U 23079A   26158.71419470  .00000070  00000+0  12172-4 0  9993
2 56823  43.0564 318.8886 0004345 275.4950  84.5406 15.27567650167081
STARLINK-30120          
1 56824U 23079B   26158.72831622  .00000279  00000+0  19670-4 0  9993
2 56824  43.0069 318.9881 0000813 228.8934 131.1848 15.27568700166971
STARLINK-30084          
1 56825U 23079C   26159.12563801 -.00001740  00000+0 -53749-4 0  9991
2 56825  43.0023 315.9498 0001234 274.7747  85.2963 15.27567128166726
STARLINK-30114          
1 56826U 23079D   26159.16415582 -.00001469  00000+0 -43874-4 0  9994
2 56826  43.0040 316.0441 0001562 258.7240 101.3436 15.27565982167036
STARLINK-30151          
1 56827U 23079E   26159.15519663 -.00001108  00000+0 -30754-4 0  9992
2 56827  43.0036 316.1558 0000940 266.3706  93.7038 15.27559823166727
STARLINK-30152          
1 56828U 23079F   26159.15905115 -.00000187  00000+0  27481-5 0  9993
2 56828  43.0066 316.1961 0001695 277.8601  82.2058 15.27562205166721
STARLINK-30128          
1 56832U 23079K   26159.65830181 -.00002004  00000+0 -63338-4 0  9994
2 56832  43.0042 287.4923 0001103 281.7605  78.3123 15.27577446160692
STARLINK-30131          
1 56833U 23079L   26159.07862685  .00020333  00000+0  83433-3 0  9995
2 56833  43.0027 294.4754 0003661 292.3762  67.6700 15.23866551166961
STARLINK-30069          
1 56834U 23079M   26159.80954343  .00003613  00000+0  14077-3 0  9990
2 56834  43.0034 309.0653 0001759 267.4843  92.5807 15.27580870166865
STARLINK-30144          
1 56835U 23079N   26158.69283536  .00024169  00000+0  64123-3 0  9992
2 56835  42.9879 311.7916 0010937 313.2232  46.7709 15.37789962166735
STARLINK-30142          
1 56836U 23079P   26159.82111958  .00001548  00000+0  65787-4 0  9991
2 56836  43.0044 309.1490 0001074 254.2869 105.7864 15.27566808166865
STARLINK-30133          
1 56837U 23079Q   26158.73204504 -.00004050  00000+0 -13782-3 0  9991
2 56837  43.0026 318.1386 0001199 278.7668  81.3048 15.27559142166660
STARLINK-30123          
1 56838U 23079R   26159.49494775  .00000930  00000+0  43316-4 0  9995
2 56838  42.9996 241.1214 0001129 241.0546 119.0193 15.27586052167639
STARLINK-30076          
1 56839U 23079S   26159.80775315  .00000317  00000+0  21038-4 0  9999
2 56839  43.0047 312.4470 0001214 261.3010  98.7704 15.27586330166821
STARLINK-30073          
1 56840U 23079T   26159.83336806  .00041990  00000+0  15277-2 0  9990
2 56840  43.0005 137.6446 0001230 246.6231  85.3432 15.27558529  5692
STARLINK-30078          
1 56841U 23079U   26157.06094262 -.00000245  00000+0  61279-6 0  9997
2 56841  43.0034 280.2917 0001633 274.8911  85.1755 15.27575794166965
STARLINK-30135          
1 56842U 23079V   26159.82188734  .00000396  00000+0  23940-4 0  9999
2 56842  43.0045 312.4727 0001727 275.5201  84.5454 15.27571408166821
STARLINK-30137          
1 56843U 23079W   26159.14361646 -.00011071  00000+0 -39365-3 0  9991
2 56843  43.0006 315.9817 0000502 252.7844 107.2953 15.27559044166725
STARLINK-30136          
1 56844U 23079X   26159.61543299  .00000895  00000+0  42036-4 0  9990
2 56844  43.0039 313.4922 0000379 253.4804 106.6006 15.27581514166794
2023-081A               
1 56846U 23081A   26159.84135088  .00007979  00000+0  34029-3 0  9995
2 56846  97.3700 230.0886 0001061 118.3385 241.7959 15.23188185166744
2023-081W               
1 56866U 23081W   26159.80802128  .00006895  00000+0  27950-3 0  9990
2 56866  97.2900 223.5575 0011572  48.9462 311.2774 15.24890977166750
LONGJIANG 3             
1 56874U 23082A   26159.86907998  .00020857  00000+0  48656-3 0  9997
2 56874  49.1079  88.0306 0004796   3.3462 356.7519 15.42097130168082
STARLINK-6206           
1 56876U 23083A   26158.11045606  .00000704  00000+0  35134-4 0  9993
2 56876  43.0075 300.4108 0002243 263.5007  96.5589 15.27582100165301
