OBJECT_NAME,OBJECT_ID,EPOCH,MEAN_MOTION,ECCENTRICITY,INCLINATION,RA_OF_ASC_NODE,ARG_OF_PERICENTER,MEAN_ANOMALY,EPHEMERIS_TYPE,CLASSIFICATION_TYPE,NORAD_CAT_ID,ELEMENT_SET_NO,REV_AT_EPOCH,BSTAR,MEAN_MOTION_DOT,MEAN_MOTION_DDOT
STARLINK-6040,2023-078AU,2026-06-08T14:44:51.795168,14.98329274,.0003349,69.9995,115.0506,265.1374,94.9402,0,U,56809,999,16630,.2801E-5,-.6E-6,0
STARLINK-6031,2023-078AV,2026-06-08T07:08:15.721152,14.98331106,.00032737,69.9990,115.9506,263.5747,96.5039,0,U,56810,999,16625,.68048141E-4,.719E-5,0
STARLINK-6065,2023-078AX,2026-06-08T12:44:36.229632,14.98333444,.00028857,70.0003,95.2998,268.2436,91.8393,0,U,56812,999,16678,-.23510722E-4,-.374E-5,0
STARLINK-6056,2023-078AY,2026-06-08T05:02:17.139840,14.98326735,.0003173,69.9995,116.0465,267.0981,92.9815,0,U,56813,999,16624,-.11175E-4,-.226E-5,0
STARLINK-6059,2023-078AZ,2026-06-08T14:50:52.472832,14.98331894,.0003078,69.9995,115.0646,262.1836,97.8974,0,U,56814,999,16630,-.33344E-4,-.491E-5,0
STARLINK-6067,2023-078BB,2026-06-08T12:26:20.238720,14.98321363,.00032286,69.9997,95.2485,264.1737,95.9054,0,U,56816,999,16678,.1229241E-3,.1374E-4,0
STARLINK-6028,2023-078BD,2026-06-08T05:02:03.333120,14.98338022,.0002976,70.0009,116.0448,270.1540,89.9278,0,U,56818,999,16693,.48758E-3,.5731E-4,0
STARLINK-30119,2023-079A,2026-06-07T17:08:26.422080,15.27567650,.0004345,43.0564,318.8886,275.4950,84.5406,0,U,56823,999,16708,.12172E-4,.7E-6,0
STARLINK-30120,2023-079B,2026-06-07T17:28:46.521408,15.27568700,.00008132,43.0069,318.9881,228.8934,131.1848,0,U,56824,999,16697,.19669559E-4,.279E-5,0
STARLINK-30084,2023-079C,2026-06-08T03:00:55.124064,15.27567128,.00012349,43.0023,315.9498,274.7747,85.2963,0,U,56825,999,16672,-.53748656E-4,-.174E-4,0
STARLINK-30114,2023-079D,2026-06-08T03:56:23.062848,15.27565982,.00015629,43.0040,316.0441,258.7240,101.3436,0,U,56826,999,16703,-.43874263E-4,-.1469E-4,0
STARLINK-30151,2023-079E,2026-06-08T03:43:28.988832,15.27559823,.00009408,43.0036,316.1558,266.3706,93.7038,0,U,56827,999,16672,-.30754067E-4,-.1108E-4,0
STARLINK-30152,2023-079F,2026-06-08T03:49:02.019360,15.27562205,.00016957,43.0066,316.1961,277.8601,82.2058,0,U,56828,999,16672,.2748093E-5,-.187E-5,0
STARLINK-30128,2023-079K,2026-06-08T15:47:57.276384,15.27577446,.0001103,43.0042,287.4923,281.7605,78.3123,0,U,56832,999,16069,-.63338E-4,-.2004E-4,0
STARLINK-30131,2023-079L,2026-06-08T01:53:13.359840,15.23866551,.00036617,43.0027,294.4754,292.3762,67.6700,0,U,56833,999,16696,.83432845E-3,.20333E-3,0
STARLINK-30069,2023-079M,2026-06-08T19:25:44.552352,15.27580870,.0001759,43.0034,309.0653,267.4843,92.5807,0,U,56834,999,16686,.14077E-3,.3613E-4,0
STARLINK-30144,2023-079N,2026-06-07T16:37:40.975104,15.37789962,.00109376,42.9879,311.7916,313.2232,46.7709,0,U,56835,999,16673,.64122632E-3,.24169E-3,0
STARLINK-30142,2023-079P,2026-06-08T19:42:24.731712,15.27566808,.0001074,43.0044,309.1490,254.2869,105.7864,0,U,56836,999,16686,.65787E-4,.1548E-4,0
STARLINK-30133,2023-079Q,2026-06-07T17:34:08.691456,15.27559142,.00011997,43.0026,318.1386,278.7668,81.3048,0,U,56837,999,16666,-.13781624E-3,-.405E-4,0
STARLINK-30123,2023-079R,2026-06-08T11:52:43.485600,15.27586052,.00011298,42.9996,241.1214,241.0546,119.0193,0,U,56838,999,16763,.43315584E-4,.93E-5,0
STARLINK-30076,2023-079S,2026-06-08T19:23:09.872160,15.27586330,.0001214,43.0047,312.4470,261.3010,98.7704,0,U,56839,999,16682,.21038E-4,.317E-5,0
STARLINK-30073,2023-079T,2026-06-08T20:00:03.000384,15.27558529,.000123,43.0005,137.6446,246.6231,85.3432,0,U,56840,999,569,.15277E-2,.4199E-3,0
STARLINK-30078,2023-079U,2026-06-06T01:27:45.442368,15.27575794,.0001633,43.0034,280.2917,274.8911,85.1755,0,U,56841,999,16696,.61279E-6,-.245E-5,0
STARLINK-30135,2023-079V,2026-06-08T19:43:31.066176,15.27571408,.0001727,43.0045,312.4727,275.5201,84.5454,0,U,56842,999,16682,.2394E-4,.396E-5,0
STARLINK-30137,2023-079W,2026-06-08T03:26:48.462144,15.27559044,.00005027,43.0006,315.9817,252.7844,107.2953,0,U,56843,999,16672,-.39364567E-3,-.11071E-3,0
STARLINK-30136,2023-079X,2026-06-08T14:46:13.410336,15.27581514,.0000379,43.0039,313.4922,253.4804,106.6006,0,U,56844,999,16679,.42036E-4,.895E-5,0
2023-081A,2023-081A,2026-06-08T20:11:32.716032,15.23188185,.0001061,97.3700,230.0886,118.3385,241.7959,0,U,56846,999,16674,.34029E-3,.7979E-4,0
2023-081W,2023-081W,2026-06-08T19:23:33.038592,15.24890977,.0011572,97.2900,223.5575,48.9462,311.2774,0,U,56866,999,16675,.2795E-3,.6895E-4,0
LONGJIANG 3,2023-082A,2026-06-08T20:51:28.510272,15.42097130,.0004796,49.1079,88.0306,3.3462,356.7519,0,U,56874,999,16808,.48656E-3,.20857E-3,0
STARLINK-6206,2023-083A,2026-06-07T02:39:03.403584,15.27582100,.0002243,43.0075,300.4108,263.5007,96.5589,0,U,56876,999,16530,.35134E-4,.704E-5,0
